STARLINK-36950          
1 67992U 26039G   26064.91668981 -.01449738  62101-3 -33911-2 0  9999
2 67992  42.9978  78.2915 0001820 265.6187 132.6554 15.96127629  2277
STARLINK-36975          
1 67993U 26039H   26064.91668981 -.01456058  62689-3 -33797-2 0  9996
2 67993  42.9977  78.2870 0001813 267.8819 132.1552 15.96269584  2275
STARLINK-36993          
1 67994U 26039J   26064.91668981 -.01441890  61660-3 -33217-2 0  9990
2 67994  42.9977  78.2823 0001848 263.1034 138.8905 15.96404722  2270
STARLINK-36968          
1 67995U 26039K   26064.91668981 -.01450261  62498-3 -32901-2 0  9992
2 67995  42.9977  78.2692 0001850 267.3620 139.7480 15.96685266  2277
STARLINK-36979          
1 67996U 26039L   26064.91668981 -.01463271  63444-3 -33446-2 0  9995
2 67996  42.9976  78.2736 0001803 265.6646 139.6385 15.96551391  2277
STARLINK-36994          
1 67997U 26039M   26064.91668981 -.01455467  63096-3 -32503-2 0  9990
2 67997  42.9978  78.2589 0001819 269.2523 141.8474 15.96971828  2272
STARLINK-36988          
1 67998U 26039N   26064.91668981 -.01462934  63606-3 -32910-2 0  9997
2 67998  42.9979  78.2637 0001870 265.2103 144.0457 15.96840449  2275
STARLINK-36926          
1 67999U 26039P   26064.91668981 -.01460466  63592-3 -32351-2 0  9999
2 67999  42.9978  78.2544 0001969 267.5234 145.4997 15.97119216  2277
STARLINK-36931          
1 68000U 26039Q   26064.91668981 -.01451683  62970-3 -31941-2 0  9997
2 68000  42.9980  78.2506 0001933 267.2993 147.2293 15.97239162  2274
STARLINK-36903          
1 68001U 26039R   26064.91668981 -.01438295  61996-3 -31402-2 0  9991
2 68001  42.9980  78.2455 0001829 265.3369 151.1718 15.97377405  2277
STARLINK-36898          
1 68002U 26039S   26064.91668981 -.01436050  61993-3 -30884-2 0  9999
2 68002  42.9980  78.2359 0001854 265.7430 154.4946 15.97648112  2277
STARLINK-36862          
1 68003U 26039T   26064.91668981 -.01428173  61535-3 -30276-2 0  9994
2 68003  42.9980  78.2271 0001812 265.6178 158.0550 15.97904750  2277
STARLINK-36888          
1 68004U 26039U   26064.91668981 -.01435641  61870-3 -31119-2 0  9992
2 68004  42.9981  78.2412 0001796 265.2752 153.0423 15.97506511  2278
STARLINK-36910          
1 68005U 26039V   26064.91668981 -.01432717  61816-3 -30582-2 0  9997
2 68005  42.9980  78.2313 0001830 267.3516 154.7165 15.97782140  2273
STARLINK-36889          
1 68006U 26039W   26064.91668981 -.01420053  60975-3 -29890-2 0  9993
2 68006  42.9980  78.2225 0001770 269.9344 155.4393 15.98030859  2271
STARLINK-36592          
1 68007U 26039X   26064.91668981 -.01422208  61229-3 -29717-2 0  9999
2 68007  42.9979  78.2188 0001808 265.3509 161.7085 15.98162085  2278
