[{"OBJECT_NAME":"STARLINK-36950","OBJECT_ID":"2026-039G","EPOCH":"2026-03-05T22:00:01.999584","MEAN_MOTION":15.96127629,"ECCENTRICITY":0.00018203,"INCLINATION":42.9978,"RA_OF_ASC_NODE":78.2915,"ARG_OF_PERICENTER":265.6187,"MEAN_ANOMALY":132.6554,"EPHEMERIS_TYPE":0,"CLASSIFICATION_TYPE":"U","NORAD_CAT_ID":67992,"ELEMENT_SET_NO":999,"REV_AT_EPOCH":227,"BSTAR":-0.0033910822,"MEAN_MOTION_DOT":-0.01449738,"MEAN_MOTION_DDOT":0.00062100829},{"OBJECT_NAME":"STARLINK-36975","OBJECT_ID":"2026-039H","EPOCH":"2026-03-05T22:00:01.999584","MEAN_MOTION":15.96269584,"ECCENTRICITY":0.00018135,"INCLINATION":42.9977,"RA_OF_ASC_NODE":78.287,"ARG_OF_PERICENTER":267.8819,"MEAN_ANOMALY":132.1552,"EPHEMERIS_TYPE":0,"CLASSIFICATION_TYPE":"U","NORAD_CAT_ID":67993,"ELEMENT_SET_NO":999,"REV_AT_EPOCH":227,"BSTAR":-0.0033797028,"MEAN_MOTION_DOT":-0.01456058,"MEAN_MOTION_DDOT":0.00062689492},{"OBJECT_NAME":"STARLINK-36993","OBJECT_ID":"2026-039J","EPOCH":"2026-03-05T22:00:01.999584","MEAN_MOTION":15.96404722,"ECCENTRICITY":0.00018483,"INCLINATION":42.9977,"RA_OF_ASC_NODE":78.2823,"ARG_OF_PERICENTER":263.1034,"MEAN_ANOMALY":138.8905,"EPHEMERIS_TYPE":0,"CLASSIFICATION_TYPE":"U","NORAD_CAT_ID":67994,"ELEMENT_SET_NO":999,"REV_AT_EPOCH":227,"BSTAR":-0.0033216982,"MEAN_MOTION_DOT":-0.0144189,"MEAN_MOTION_DDOT":0.00061659683},{"OBJECT_NAME":"STARLINK-36968","OBJECT_ID":"2026-039K","EPOCH":"2026-03-05T22:00:01.999584","MEAN_MOTION":15.96685266,"ECCENTRICITY":0.00018503,"INCLINATION":42.9977,"RA_OF_ASC_NODE":78.2692,"ARG_OF_PERICENTER":267.362,"MEAN_ANOMALY":139.748,"EPHEMERIS_TYPE":0,"CLASSIFICATION_TYPE":"U","NORAD_CAT_ID":67995,"ELEMENT_SET_NO":999,"REV_AT_EPOCH":227,"BSTAR":-0.0032901144,"MEAN_MOTION_DOT":-0.01450261,"MEAN_MOTION_DDOT":0.00062497966},{"OBJECT_NAME":"STARLINK-36979","OBJECT_ID":"2026-039L","EPOCH":"2026-03-05T22:00:01.999584","MEAN_MOTION":15.96551391,"ECCENTRICITY":0.00018031,"INCLINATION":42.9976,"RA_OF_ASC_NODE":78.2736,"ARG_OF_PERICENTER":265.6646,"MEAN_ANOMALY":139.6385,"EPHEMERIS_TYPE":0,"CLASSIFICATION_TYPE":"U","NORAD_CAT_ID":67996,"ELEMENT_SET_NO":999,"REV_AT_EPOCH":227,"BSTAR":-0.0033445598,"MEAN_MOTION_DOT":-0.01463271,"MEAN_MOTION_DDOT":0.00063443877},{"OBJECT_NAME":"STARLINK-36994","OBJECT_ID":"2026-039M","EPOCH":"2026-03-05T22:00:01.999584","MEAN_MOTION":15.96971828,"ECCENTRICITY":0.00018194,"INCLINATION":42.9978,"RA_OF_ASC_NODE":78.2589,"ARG_OF_PERICENTER":269.2523,"MEAN_ANOMALY":141.8474,"EPHEMERIS_TYPE":0,"CLASSIFICATION_TYPE":"U","NORAD_CAT_ID":67997,"ELEMENT_SET_NO":999,"REV_AT_EPOCH":227,"BSTAR":-0.0032503302,"MEAN_MOTION_DOT":-0.01455467,"MEAN_MOTION_DDOT":0.00063096493},{"OBJECT_NAME":"STARLINK-36988","OBJECT_ID":"2026-039N","EPOCH":"2026-03-05T22:00:01.999584","MEAN_MOTION":15.96840449,"ECCENTRICITY":0.00018703,"INCLINATION":42.9979,"RA_OF_ASC_NODE":78.2637,"ARG_OF_PERICENTER":265.2103,"MEAN_ANOMALY":144.0457,"EPHEMERIS_TYPE":0,"CLASSIFICATION_TYPE":"U","NORAD_CAT_ID":67998,"ELEMENT_SET_NO":999,"REV_AT_EPOCH":227,"BSTAR":-0.0032909535,"MEAN_MOTION_DOT":-0.01462934,"MEAN_MOTION_DDOT":0.0006360593},{"OBJECT_NAME":"STARLINK-36926","OBJECT_ID":"2026-039P","EPOCH":"2026-03-05T22:00:01.999584","MEAN_MOTION":15.97119216,"ECCENTRICITY":0.00019697,"INCLINATION":42.9978,"RA_OF_ASC_NODE":78.2544,"ARG_OF_PERICENTER":267.5234,"MEAN_ANOMALY":145.4997,"EPHEMERIS_TYPE":0,"CLASSIFICATION_TYPE":"U","NORAD_CAT_ID":67999,"ELEMENT_SET_NO":999,"REV_AT_EPOCH":227,"BSTAR":-0.0032350643,"MEAN_MOTION_DOT":-0.01460466,"MEAN_MOTION_DDOT":0.00063591855},{"OBJECT_NAME":"STARLINK-36931","OBJECT_ID":"2026-039Q","EPOCH":"2026-03-05T22:00:01.999584","MEAN_MOTION":15.97239162,"ECCENTRICITY":0.00019337,"INCLINATION":42.998,"RA_OF_ASC_NODE":78.2506,"ARG_OF_PERICENTER":267.2993,"MEAN_ANOMALY":147.2293,"EPHEMERIS_TYPE":0,"CLASSIFICATION_TYPE":"U","NORAD_CAT_ID":68000,"ELEMENT_SET_NO":999,"REV_AT_EPOCH":227,"BSTAR":-0.0031941078,"MEAN_MOTION_DOT":-0.01451683,"MEAN_MOTION_DDOT":0.00062969614},{"OBJECT_NAME":"STARLINK-36903","OBJECT_ID":"2026-039R","EPOCH":"2026-03-05T22:00:01.999584","MEAN_MOTION":15.97377405,"ECCENTRICITY":0.00018293,"INCLINATION":42.998,"RA_OF_ASC_NODE":78.2455,"ARG_OF_PERICENTER":265.3369,"MEAN_ANOMALY":151.1718,"EPHEMERIS_TYPE":0,"CLASSIFICATION_TYPE":"U","NORAD_CAT_ID":68001,"ELEMENT_SET_NO":999,"REV_AT_EPOCH":227,"BSTAR":-0.0031401834,"MEAN_MOTION_DOT":-0.01438295,"MEAN_MOTION_DDOT":0.00061996459},{"OBJECT_NAME":"STARLINK-36898","OBJECT_ID":"2026-039S","EPOCH":"2026-03-05T22:00:01.999584","MEAN_MOTION":15.97648112,"ECCENTRICITY":0.00018546,"INCLINATION":42.998,"RA_OF_ASC_NODE":78.2359,"ARG_OF_PERICENTER":265.743,"MEAN_ANOMALY":154.4946,"EPHEMERIS_TYPE":0,"CLASSIFICATION_TYPE":"U","NORAD_CAT_ID":68002,"ELEMENT_SET_NO":999,"REV_AT_EPOCH":227,"BSTAR":-0.0030883656,"MEAN_MOTION_DOT":-0.0143605,"MEAN_MOTION_DDOT":0.00061993265},{"OBJECT_NAME":"STARLINK-36862","OBJECT_ID":"2026-039T","EPOCH":"2026-03-05T22:00:01.999584","MEAN_MOTION":15.9790475,"ECCENTRICITY":0.00018129,"INCLINATION":42.998,"RA_OF_ASC_NODE":78.2271,"ARG_OF_PERICENTER":265.6178,"MEAN_ANOMALY":158.055,"EPHEMERIS_TYPE":0,"CLASSIFICATION_TYPE":"U","NORAD_CAT_ID":68003,"ELEMENT_SET_NO":999,"REV_AT_EPOCH":227,"BSTAR":-0.0030275833,"MEAN_MOTION_DOT":-0.01428173,"MEAN_MOTION_DDOT":0.00061535215},{"OBJECT_NAME":"STARLINK-36888","OBJECT_ID":"2026-039U","EPOCH":"2026-03-05T22:00:01.999584","MEAN_MOTION":15.97506511,"ECCENTRICITY":0.00017968,"INCLINATION":42.9981,"RA_OF_ASC_NODE":78.2412,"ARG_OF_PERICENTER":265.2752,"MEAN_ANOMALY":153.0423,"EPHEMERIS_TYPE":0,"CLASSIFICATION_TYPE":"U","NORAD_CAT_ID":68004,"ELEMENT_SET_NO":999,"REV_AT_EPOCH":227,"BSTAR":-0.0031119377,"MEAN_MOTION_DOT":-0.01435641,"MEAN_MOTION_DDOT":0.00061869622},{"OBJECT_NAME":"STARLINK-36910","OBJECT_ID":"2026-039V","EPOCH":"2026-03-05T22:00:01.999584","MEAN_MOTION":15.9778214,"ECCENTRICITY":0.000183,"INCLINATION":42.998,"RA_OF_ASC_NODE":78.2313,"ARG_OF_PERICENTER":267.3516,"MEAN_ANOMALY":154.7165,"EPHEMERIS_TYPE":0,"CLASSIFICATION_TYPE":"U","NORAD_CAT_ID":68005,"ELEMENT_SET_NO":999,"REV_AT_EPOCH":227,"BSTAR":-0.0030581885,"MEAN_MOTION_DOT":-0.01432717,"MEAN_MOTION_DDOT":0.000618157},{"OBJECT_NAME":"STARLINK-36889","OBJECT_ID":"2026-039W","EPOCH":"2026-03-05T22:00:01.999584","MEAN_MOTION":15.98030859,"ECCENTRICITY":0.00017701,"INCLINATION":42.998,"RA_OF_ASC_NODE":78.2225,"ARG_OF_PERICENTER":269.9344,"MEAN_ANOMALY":155.4393,"EPHEMERIS_TYPE":0,"CLASSIFICATION_TYPE":"U","NORAD_CAT_ID":68006,"ELEMENT_SET_NO":999,"REV_AT_EPOCH":227,"BSTAR":-0.0029890275,"MEAN_MOTION_DOT":-0.01420053,"MEAN_MOTION_DDOT":0.00060974949},{"OBJECT_NAME":"STARLINK-36592","OBJECT_ID":"2026-039X","EPOCH":"2026-03-05T22:00:01.999584","MEAN_MOTION":15.98162085,"ECCENTRICITY":0.00018082,"INCLINATION":42.9979,"RA_OF_ASC_NODE":78.2188,"ARG_OF_PERICENTER":265.3509,"MEAN_ANOMALY":161.7085,"EPHEMERIS_TYPE":0,"CLASSIFICATION_TYPE":"U","NORAD_CAT_ID":68007,"ELEMENT_SET_NO":999,"REV_AT_EPOCH":227,"BSTAR":-0.0029716724,"MEAN_MOTION_DOT":-0.01422208,"MEAN_MOTION_DDOT":0.00061229101}]
